{"fetched_at":"2026-07-14T06:35:04.008Z","source":"https://celestrak.org/NORAD/elements/gp.php?NAME=SENTINEL&FORMAT=JSON","constellation":"sentinel-5p","records":[{"OBJECT_NAME":"SENTINEL-5P","OBJECT_ID":"2017-064A","EPOCH":"2026-07-13T20:17:35.360160","CLASSIFICATION_TYPE":"U","MEAN_MOTION":14.19523141,"ECCENTRICITY":0.0001111,"INCLINATION":98.7929,"RA_OF_ASC_NODE":136.7881,"ARG_OF_PERICENTER":93.4,"MEAN_ANOMALY":266.7303,"EPHEMERIS_TYPE":0,"NORAD_CAT_ID":42969,"ELEMENT_SET_NO":999,"REV_AT_EPOCH":45334,"BSTAR":0.000018749,"MEAN_MOTION_DOT":-5e-8,"MEAN_MOTION_DDOT":0}]}
