SENTINEL-5P             
1 42969U 17064A   26194.84554815 -.00000005  00000+0  18749-4 0  9998
2 42969  98.7929 136.7881 0001111  93.4000 266.7303 14.19523141453347
